CCSDS_OMM_VERS = 2.0
CREATION_DATE  = 
ORIGINATOR     = 

OBJECT_NAME    = STARLINK-35472
OBJECT_ID      = 2025-225D
CENTER_NAME    = EARTH
REF_FRAME      = TEME
TIME_SYSTEM    = UTC
MEAN_ELEMENT_THEORY = SGP/SGP4

EPOCH          = 2025-10-27T11:42:47.159712
MEAN_MOTION    = 15.74179152
ECCENTRICITY   = .000065
INCLINATION    = 53.1605
RA_OF_ASC_NODE = 68.0041
ARG_OF_PERICENTER = 62.0215
MEAN_ANOMALY   = 298.0871

EPHEMERIS_TYPE = 0
CLASSIFICATION_TYPE = U
NORAD_CAT_ID   = 65913
ELEMENT_SET_NO = 999
REV_AT_EPOCH   = 396
BSTAR          = .80035E-3
MEAN_MOTION_DOT = .118189E-2
MEAN_MOTION_DDOT = 0

CCSDS_OMM_VERS = 2.0
CREATION_DATE  = 
ORIGINATOR     = 

OBJECT_NAME    = STARLINK-35524
OBJECT_ID      = 2025-225E
CENTER_NAME    = EARTH
REF_FRAME      = TEME
TIME_SYSTEM    = UTC
MEAN_ELEMENT_THEORY = SGP/SGP4

EPOCH          = 2025-10-27T11:42:18.142272
MEAN_MOTION    = 15.74154670
ECCENTRICITY   = .000112
INCLINATION    = 53.1602
RA_OF_ASC_NODE = 68.0028
ARG_OF_PERICENTER = 51.2385
MEAN_ANOMALY   = 308.8734

EPHEMERIS_TYPE = 0
CLASSIFICATION_TYPE = U
NORAD_CAT_ID   = 65914
ELEMENT_SET_NO = 999
REV_AT_EPOCH   = 396
BSTAR          = .50092E-3
MEAN_MOTION_DOT = .73262E-3
MEAN_MOTION_DDOT = 0

CCSDS_OMM_VERS = 2.0
CREATION_DATE  = 
ORIGINATOR     = 

OBJECT_NAME    = STARLINK-35539
OBJECT_ID      = 2025-225F
CENTER_NAME    = EARTH
REF_FRAME      = TEME
TIME_SYSTEM    = UTC
MEAN_ELEMENT_THEORY = SGP/SGP4

EPOCH          = 2025-10-27T12:00:02.000160
MEAN_MOTION    = 15.64929703
ECCENTRICITY   = .0001064
INCLINATION    = 53.1600
RA_OF_ASC_NODE = 67.9967
ARG_OF_PERICENTER = 51.5878
MEAN_ANOMALY   = 351.3384

EPHEMERIS_TYPE = 0
CLASSIFICATION_TYPE = U
NORAD_CAT_ID   = 65915
ELEMENT_SET_NO = 999
REV_AT_EPOCH   = 394
BSTAR          = -.28998E-1
MEAN_MOTION_DOT = -.2520147E-1
MEAN_MOTION_DDOT = 0

CCSDS_OMM_VERS = 2.0
CREATION_DATE  = 
ORIGINATOR     = 

OBJECT_NAME    = STARLINK-35521
OBJECT_ID      = 2025-225G
CENTER_NAME    = EARTH
REF_FRAME      = TEME
TIME_SYSTEM    = UTC
MEAN_ELEMENT_THEORY = SGP/SGP4

EPOCH          = 2025-10-27T11:41:19.843008
MEAN_MOTION    = 15.74105822
ECCENTRICITY   = .0000901
INCLINATION    = 53.1610
RA_OF_ASC_NODE = 67.9969
ARG_OF_PERICENTER = 89.7019
MEAN_ANOMALY   = 270.4104

EPHEMERIS_TYPE = 0
CLASSIFICATION_TYPE = U
NORAD_CAT_ID   = 65916
ELEMENT_SET_NO = 999
REV_AT_EPOCH   = 396
BSTAR          = -.28157E-3
MEAN_MOTION_DOT = -.41513E-3
MEAN_MOTION_DDOT = 0

CCSDS_OMM_VERS = 2.0
CREATION_DATE  = 
ORIGINATOR     = 

OBJECT_NAME    = STARLINK-35478
OBJECT_ID      = 2025-225H
CENTER_NAME    = EARTH
REF_FRAME      = TEME
TIME_SYSTEM    = UTC
MEAN_ELEMENT_THEORY = SGP/SGP4

EPOCH          = 2025-10-27T11:40:21.360576
MEAN_MOTION    = 15.74160203
ECCENTRICITY   = .0001746
INCLINATION    = 53.1606
RA_OF_ASC_NODE = 67.9921
ARG_OF_PERICENTER = 28.9756
MEAN_ANOMALY   = 331.1360

EPHEMERIS_TYPE = 0
CLASSIFICATION_TYPE = U
NORAD_CAT_ID   = 65917
ELEMENT_SET_NO = 999
REV_AT_EPOCH   = 396
BSTAR          = .57954E-3
MEAN_MOTION_DOT = .85001E-3
MEAN_MOTION_DDOT = 0

CCSDS_OMM_VERS = 2.0
CREATION_DATE  = 
ORIGINATOR     = 

OBJECT_NAME    = STARLINK-35516
OBJECT_ID      = 2025-225J
CENTER_NAME    = EARTH
REF_FRAME      = TEME
TIME_SYSTEM    = UTC
MEAN_ELEMENT_THEORY = SGP/SGP4

EPOCH          = 2025-10-27T11:40:50.721888
MEAN_MOTION    = 15.74102710
ECCENTRICITY   = .0001261
INCLINATION    = 53.1600
RA_OF_ASC_NODE = 67.9946
ARG_OF_PERICENTER = 49.3096
MEAN_ANOMALY   = 310.8033

EPHEMERIS_TYPE = 0
CLASSIFICATION_TYPE = U
NORAD_CAT_ID   = 65918
ELEMENT_SET_NO = 999
REV_AT_EPOCH   = 396
BSTAR          = -.20426E-3
MEAN_MOTION_DOT = -.30324E-3
MEAN_MOTION_DDOT = 0

CCSDS_OMM_VERS = 2.0
CREATION_DATE  = 
ORIGINATOR     = 

OBJECT_NAME    = STARLINK-35519
OBJECT_ID      = 2025-225K
CENTER_NAME    = EARTH
REF_FRAME      = TEME
TIME_SYSTEM    = UTC
MEAN_ELEMENT_THEORY = SGP/SGP4

EPOCH          = 2025-10-27T11:39:51.823872
MEAN_MOTION    = 15.74179997
ECCENTRICITY   = .0001163
INCLINATION    = 53.1605
RA_OF_ASC_NODE = 67.9911
ARG_OF_PERICENTER = 102.5727
MEAN_ANOMALY   = 257.5422

EPHEMERIS_TYPE = 0
CLASSIFICATION_TYPE = U
NORAD_CAT_ID   = 65919
ELEMENT_SET_NO = 999
REV_AT_EPOCH   = 396
BSTAR          = .63114E-3
MEAN_MOTION_DOT = .92789E-3
MEAN_MOTION_DDOT = 0

CCSDS_OMM_VERS = 2.0
CREATION_DATE  = 
ORIGINATOR     = 

OBJECT_NAME    = STARLINK-33902
OBJECT_ID      = 2025-225L
CENTER_NAME    = EARTH
REF_FRAME      = TEME
TIME_SYSTEM    = UTC
MEAN_ELEMENT_THEORY = SGP/SGP4

EPOCH          = 2025-10-27T11:39:22.617216
MEAN_MOTION    = 15.74180448
ECCENTRICITY   = .0000647
INCLINATION    = 53.1603
RA_OF_ASC_NODE = 67.9873
ARG_OF_PERICENTER = 84.1209
MEAN_ANOMALY   = 275.9885

EPHEMERIS_TYPE = 0
CLASSIFICATION_TYPE = U
NORAD_CAT_ID   = 65920
ELEMENT_SET_NO = 999
REV_AT_EPOCH   = 396
BSTAR          = .75888E-3
MEAN_MOTION_DOT = .111956E-2
MEAN_MOTION_DDOT = 0

CCSDS_OMM_VERS = 2.0
CREATION_DATE  = 
ORIGINATOR     = 

OBJECT_NAME    = STARLINK-35530
OBJECT_ID      = 2025-225M
CENTER_NAME    = EARTH
REF_FRAME      = TEME
TIME_SYSTEM    = UTC
MEAN_ELEMENT_THEORY = SGP/SGP4

EPOCH          = 2025-10-27T11:38:53.896128
MEAN_MOTION    = 15.74136008
ECCENTRICITY   = .0001518
INCLINATION    = 53.1601
RA_OF_ASC_NODE = 67.9861
ARG_OF_PERICENTER = 48.9180
MEAN_ANOMALY   = 311.1971

EPHEMERIS_TYPE = 0
CLASSIFICATION_TYPE = U
NORAD_CAT_ID   = 65921
ELEMENT_SET_NO = 999
REV_AT_EPOCH   = 396
BSTAR          = .2967E-3
MEAN_MOTION_DOT = .42945E-3
MEAN_MOTION_DDOT = 0

CCSDS_OMM_VERS = 2.0
CREATION_DATE  = 
ORIGINATOR     = 

OBJECT_NAME    = STARLINK-35544
OBJECT_ID      = 2025-225N
CENTER_NAME    = EARTH
REF_FRAME      = TEME
TIME_SYSTEM    = UTC
MEAN_ELEMENT_THEORY = SGP/SGP4

EPOCH          = 2025-10-27T11:38:24.266976
MEAN_MOTION    = 15.74166362
ECCENTRICITY   = .0000766
INCLINATION    = 53.1604
RA_OF_ASC_NODE = 67.9830
ARG_OF_PERICENTER = 36.9369
MEAN_ANOMALY   = 323.1703

EPHEMERIS_TYPE = 0
CLASSIFICATION_TYPE = U
NORAD_CAT_ID   = 65922
ELEMENT_SET_NO = 999
REV_AT_EPOCH   = 396
BSTAR          = .63785E-3
MEAN_MOTION_DOT = .93738E-3
MEAN_MOTION_DDOT = 0

CCSDS_OMM_VERS = 2.0
CREATION_DATE  = 
ORIGINATOR     = 

OBJECT_NAME    = STARLINK-35484
OBJECT_ID      = 2025-225P
CENTER_NAME    = EARTH
REF_FRAME      = TEME
TIME_SYSTEM    = UTC
MEAN_ELEMENT_THEORY = SGP/SGP4

EPOCH          = 2025-10-27T11:37:54.954048
MEAN_MOTION    = 15.74193378
ECCENTRICITY   = .0000826
INCLINATION    = 53.1602
RA_OF_ASC_NODE = 67.9813
ARG_OF_PERICENTER = 77.7748
MEAN_ANOMALY   = 282.3364

EPHEMERIS_TYPE = 0
CLASSIFICATION_TYPE = U
NORAD_CAT_ID   = 65923
ELEMENT_SET_NO = 999
REV_AT_EPOCH   = 396
BSTAR          = .92226E-3
MEAN_MOTION_DOT = .136675E-2
MEAN_MOTION_DDOT = 0

CCSDS_OMM_VERS = 2.0
CREATION_DATE  = 
ORIGINATOR     = 

OBJECT_NAME    = STARLINK-34994
OBJECT_ID      = 2025-225Q
CENTER_NAME    = EARTH
REF_FRAME      = TEME
TIME_SYSTEM    = UTC
MEAN_ELEMENT_THEORY = SGP/SGP4

EPOCH          = 2025-10-27T11:37:25.800960
MEAN_MOTION    = 15.74168177
ECCENTRICITY   = .0000879
INCLINATION    = 53.1602
RA_OF_ASC_NODE = 67.9794
ARG_OF_PERICENTER = 72.6865
MEAN_ANOMALY   = 287.4251

EPHEMERIS_TYPE = 0
CLASSIFICATION_TYPE = U
NORAD_CAT_ID   = 65924
ELEMENT_SET_NO = 999
REV_AT_EPOCH   = 396
BSTAR          = .47061E-3
MEAN_MOTION_DOT = .68794E-3
MEAN_MOTION_DDOT = 0

