STARLINK-35472          
1 65913U 25225D   25300.48804583  .00118189  00000+0  80035-3 0  9996
2 65913  53.1605  68.0041 0000650  62.0215 298.0871 15.74179152  3967
STARLINK-35524          
1 65914U 25225E   25300.48770998  .00073262  00000+0  50092-3 0  9991
2 65914  53.1602  68.0028 0001120  51.2385 308.8734 15.74154670  3967
STARLINK-35539          
1 65915U 25225F   25300.50002315 -.02520147  00000+0 -28998-1 0  9997
2 65915  53.1600  67.9967 0001064  51.5878 351.3384 15.64929703  3941
STARLINK-35521          
1 65916U 25225G   25300.48703522 -.00041513  00000+0 -28157-3 0  9995
2 65916  53.1610  67.9969 0000901  89.7019 270.4104 15.74105822  3966
STARLINK-35478          
1 65917U 25225H   25300.48635834  .00085001  00000+0  57954-3 0  9991
2 65917  53.1606  67.9921 0001746  28.9756 331.1360 15.74160203  3964
STARLINK-35516          
1 65918U 25225J   25300.48669817 -.00030324  00000+0 -20426-3 0  9994
2 65918  53.1600  67.9946 0001261  49.3096 310.8033 15.74102710  3962
STARLINK-35519          
1 65919U 25225K   25300.48601648  .00092789  00000+0  63114-3 0  9995
2 65919  53.1605  67.9911 0001163 102.5727 257.5422 15.74179997  3964
STARLINK-33902          
1 65920U 25225L   25300.48567844  .00111956  00000+0  75888-3 0  9995
2 65920  53.1603  67.9873 0000647  84.1209 275.9885 15.74180448  3967
STARLINK-35530          
1 65921U 25225M   25300.48534602  .00042945  00000+0  29670-3 0  9991
2 65921  53.1601  67.9861 0001518  48.9180 311.1971 15.74136008  3969
STARLINK-35544          
1 65922U 25225N   25300.48500309  .00093738  00000+0  63785-3 0  9990
2 65922  53.1604  67.9830 0000766  36.9369 323.1703 15.74166362  3961
STARLINK-35484          
1 65923U 25225P   25300.48466382  .00136675  00000+0  92226-3 0  9993
2 65923  53.1602  67.9813 0000826  77.7748 282.3364 15.74193378  3968
STARLINK-34994          
1 65924U 25225Q   25300.48432640  .00068794  00000+0  47061-3 0  9997
2 65924  53.1602  67.9794 0000879  72.6865 287.4251 15.74168177  3969
